[{"OBJECT_NAME":"STARLINK-4548","OBJECT_ID":"2022-097AV","EPOCH":"2026-03-09T18:49:06.736800","MEAN_MOTION":15.08842722,"ECCENTRICITY":0.00010032,"INCLINATION":53.2161,"RA_OF_ASC_NODE":103.3107,"ARG_OF_PERICENTER":77.9974,"MEAN_ANOMALY":282.1131,"EPHEMERIS_TYPE":0,"CLASSIFICATION_TYPE":"U","NORAD_CAT_ID":53431,"ELEMENT_SET_NO":999,"REV_AT_EPOCH":19880,"BSTAR":-3.508286e-5,"MEAN_MOTION_DOT":-8.46e-6,"MEAN_MOTION_DDOT":0},{"OBJECT_NAME":"PSLV DEB","OBJECT_ID":"2001-049PF","EPOCH":"2026-02-25T09:35:51.227808","MEAN_MOTION":15.03011877,"ECCENTRICITY":0.00263657,"INCLINATION":98.0083,"RA_OF_ASC_NODE":118.9106,"ARG_OF_PERICENTER":265.6966,"MEAN_ANOMALY":94.1245,"EPHEMERIS_TYPE":0,"CLASSIFICATION_TYPE":"U","NORAD_CAT_ID":28853,"ELEMENT_SET_NO":999,"REV_AT_EPOCH":68879,"BSTAR":0.00037786861,"MEAN_MOTION_DOT":5.057e-5,"MEAN_MOTION_DDOT":0}]
